{"type": "FeatureCollection", "features": [ {"type": "Feature", "properties": {"norad_id": 66849, "name": "STARLINK-36102", "group": "last-30-days", "lat": -31.295908964225713, "lon": 17.862911496953267, "alt_km": 380.7622562448887, "timestamp": "2025-12-23T05:02:10.750673+00:00", "meta": {"OBJECT_NAME": "STARLINK-36102", "OBJECT_ID": "2025-281B", "EPOCH": "2025-12-22T22:00:03.000096", "MEAN_MOTION": 15.64389365, "ECCENTRICITY": 0.00011821, "INCLINATION": 43.0005, "RA_OF_ASC_NODE": 60.3323, "ARG_OF_PERICENTER": 284.0179, "MEAN_ANOMALY": 174.1552, "EPHEMERIS_TYPE": 0, "CLASSIFICATION_TYPE": "U", "NORAD_CAT_ID": 66849, "ELEMENT_SET_NO": 999, "REV_AT_EPOCH": 302, "BSTAR": -0.023305728, "MEAN_MOTION_DOT": -0.02017864, "MEAN_MOTION_DDOT": 0}, "tle": {"line1": "1 66849U 25281B   25356.91670139 -.02017864  00000+0 -23306-1 0  9992", "line2": "2 66849  43.0005  60.3323 0001182 284.0179 174.1552 15.64389365  3027"}}, "geometry": {"type": "Point", "coordinates": [17.862911496953267, -31.295908964225713]}}, {"type": "Feature", "properties": {"norad_id": 66850, "name": "STARLINK-36105", "group": "last-30-days", "lat": -30.291616266737588, "lon": 19.75859226403543, "alt_km": 380.71111530458074, "timestamp": "2025-12-23T05:02:10.750685+00:00", "meta": {"OBJECT_NAME": "STARLINK-36105", "OBJECT_ID": "2025-281C", "EPOCH": "2025-12-22T22:00:03.000096", "MEAN_MOTION": 15.6439093, "ECCENTRICITY": 0.00011947, "INCLINATION": 43.0005, "RA_OF_ASC_NODE": 60.3276, "ARG_OF_PERICENTER": 283.968, "MEAN_ANOMALY": 176.1231, "EPHEMERIS_TYPE": 0, "CLASSIFICATION_TYPE": "U", "NORAD_CAT_ID": 66850, "ELEMENT_SET_NO": 999, "REV_AT_EPOCH": 302, "BSTAR": -0.023353622, "MEAN_MOTION_DOT": -0.02021617, "MEAN_MOTION_DDOT": 0}, "tle": {"line1": "1 66850U 25281C   25356.91670139 -.02021617  00000+0 -23354-1 0  9998", "line2": "2 66850  43.0005  60.3276 0001194 283.9680 176.1231 15.64390930  3020"}}, "geometry": {"type": "Point", "coordinates": [19.75859226403543, -30.291616266737588]}}, {"type": "Feature", "properties": {"norad_id": 66851, "name": "STARLINK-36094", "group": "last-30-days", "lat": -29.262080428091583, "lon": 21.6119920163624, "alt_km": 380.6143241462105, "timestamp": "2025-12-23T05:02:10.750695+00:00", "meta": {"OBJECT_NAME": "STARLINK-36094", "OBJECT_ID": "2025-281D", "EPOCH": "2025-12-22T22:00:03.000096", "MEAN_MOTION": 15.64388979, "ECCENTRICITY": 0.00012374, "INCLINATION": 43.0006, "RA_OF_ASC_NODE": 60.3224, "ARG_OF_PERICENTER": 285.5303, "MEAN_ANOMALY": 176.4768, "EPHEMERIS_TYPE": 0, "CLASSIFICATION_TYPE": "U", "NORAD_CAT_ID": 66851, "ELEMENT_SET_NO": 999, "REV_AT_EPOCH": 302, "BSTAR": -0.023300268, "MEAN_MOTION_DOT": -0.02017464, "MEAN_MOTION_DDOT": 0}, "tle": {"line1": "1 66851U 25281D   25356.91670139 -.02017464  00000+0 -23300-1 0  9995", "line2": "2 66851  43.0006  60.3224 0001237 285.5303 176.4768 15.64388979  3021"}}, "geometry": {"type": "Point", "coordinates": [21.6119920163624, -29.262080428091583]}}, {"type": "Feature", "properties": {"norad_id": 66852, "name": "STARLINK-35992", "group": "last-30-days", "lat": -28.204554646278282, "lon": 23.433619681026645, "alt_km": 380.6180642044055, "timestamp": "2025-12-23T05:02:10.750706+00:00", "meta": {"OBJECT_NAME": "STARLINK-35992", "OBJECT_ID": "2025-281E", "EPOCH": "2025-12-22T22:00:03.000096", "MEAN_MOTION": 15.64395133, "ECCENTRICITY": 0.00011735, "INCLINATION": 43.0005, "RA_OF_ASC_NODE": 60.3185, "ARG_OF_PERICENTER": 284.7301, "MEAN_ANOMALY": 179.1953, "EPHEMERIS_TYPE": 0, "CLASSIFICATION_TYPE": "U", "NORAD_CAT_ID": 66852, "ELEMENT_SET_NO": 999, "REV_AT_EPOCH": 302, "BSTAR": -0.023456301, "MEAN_MOTION_DOT": -0.02029682, "MEAN_MOTION_DDOT": 0}, "tle": {"line1": "1 66852U 25281E   25356.91670139 -.02029682  00000+0 -23456-1 0  9993", "line2": "2 66852  43.0005  60.3185 0001173 284.7301 179.1953 15.64395133  3021"}}, "geometry": {"type": "Point", "coordinates": [23.433619681026645, -28.204554646278282]}}, {"type": "Feature", "properties": {"norad_id": 66853, "name": "STARLINK-35986", "group": "last-30-days", "lat": -27.124931397302, "lon": 25.21547805810018, "alt_km": 380.5146330573061, "timestamp": "2025-12-23T05:02:10.750718+00:00", "meta": {"OBJECT_NAME": "STARLINK-35986", "OBJECT_ID": "2025-281F", "EPOCH": "2025-12-22T22:00:03.000096", "MEAN_MOTION": 15.64392157, "ECCENTRICITY": 0.00012517, "INCLINATION": 43.0006, "RA_OF_ASC_NODE": 60.3134, "ARG_OF_PERICENTER": 284.5973, "MEAN_ANOMALY": 181.2466, "EPHEMERIS_TYPE": 0, "CLASSIFICATION_TYPE": "U", "NORAD_CAT_ID": 66853, "ELEMENT_SET_NO": 999, "REV_AT_EPOCH": 302, "BSTAR": -0.023408985, "MEAN_MOTION_DOT": -0.02025945, "MEAN_MOTION_DDOT": 0}, "tle": {"line1": "1 66853U 25281F   25356.91670139 -.02025945  00000+0 -23409-1 0  9990", "line2": "2 66853  43.0006  60.3134 0001251 284.5973 181.2466 15.64392157  3023"}}, "geometry": {"type": "Point", "coordinates": [25.21547805810018, -27.124931397302]}}, {"type": "Feature", "properties": {"norad_id": 66854, "name": "STARLINK-36087", "group": "last-30-days", "lat": -26.02200654912452, "lon": 26.96423191229286, "alt_km": 380.5196303316561, "timestamp": "2025-12-23T05:02:10.750729+00:00", "meta": {"OBJECT_NAME": "STARLINK-36087", "OBJECT_ID": "2025-281G", "EPOCH": "2025-12-22T22:00:03.000096", "MEAN_MOTION": 15.64394354, "ECCENTRICITY": 0.00012086, "INCLINATION": 43.0006, "RA_OF_ASC_NODE": 60.3081, "ARG_OF_PERICENTER": 281.6941, "MEAN_ANOMALY": 186.0674, "EPHEMERIS_TYPE": 0, "CLASSIFICATION_TYPE": "U", "NORAD_CAT_ID": 66854, "ELEMENT_SET_NO": 999, "REV_AT_EPOCH": 302, "BSTAR": -0.023457199, "MEAN_MOTION_DOT": -0.02029721, "MEAN_MOTION_DDOT": 0}, "tle": {"line1": "1 66854U 25281G   25356.91670139 -.02029721  00000+0 -23457-1 0  9990", "line2": "2 66854  43.0006  60.3081 0001208 281.6941 186.0674 15.64394354  3025"}}, "geometry": {"type": "Point", "coordinates": [26.96423191229286, -26.02200654912452]}}, {"type": "Feature", "properties": {"norad_id": 66855, "name": "STARLINK-36090", "group": "last-30-days", "lat": -24.900823805251818, "lon": 28.676890910488275, "alt_km": 380.48437010769703, "timestamp": "2025-12-23T05:02:10.750739+00:00", "meta": {"OBJECT_NAME": "STARLINK-36090", "OBJECT_ID": "2025-281H", "EPOCH": "2025-12-22T22:00:03.000096", "MEAN_MOTION": 15.64389512, "ECCENTRICITY": 0.00011327, "INCLINATION": 43.0003, "RA_OF_ASC_NODE": 60.3038, "ARG_OF_PERICENTER": 283.111, "MEAN_ANOMALY": 186.5682, "EPHEMERIS_TYPE": 0, "CLASSIFICATION_TYPE": "U", "NORAD_CAT_ID": 66855, "ELEMENT_SET_NO": 999, "REV_AT_EPOCH": 290, "BSTAR": -0.023368651, "MEAN_MOTION_DOT": -0.02022609, "MEAN_MOTION_DDOT": 0}, "tle": {"line1": "1 66855U 25281H   25356.91670139 -.02022609  00000+0 -23369-1 0  9991", "line2": "2 66855  43.0003  60.3038 0001132 283.1110 186.5682 15.64389512  2906"}}, "geometry": {"type": "Point", "coordinates": [28.676890910488275, -24.900823805251818]}}, {"type": "Feature", "properties": {"norad_id": 66856, "name": "STARLINK-36072", "group": "last-30-days", "lat": -23.7585691690292, "lon": 30.36001933113485, "alt_km": 380.35836098221444, "timestamp": "2025-12-23T05:02:10.750749+00:00", "meta": {"OBJECT_NAME": "STARLINK-36072", "OBJECT_ID": "2025-281J", "EPOCH": "2025-12-22T22:00:03.000096", "MEAN_MOTION": 15.64393353, "ECCENTRICITY": 0.00012078, "INCLINATION": 43.0004, "RA_OF_ASC_NODE": 60.2981, "ARG_OF_PERICENTER": 284.1182, "MEAN_ANOMALY": 187.4761, "EPHEMERIS_TYPE": 0, "CLASSIFICATION_TYPE": "U", "NORAD_CAT_ID": 66856, "ELEMENT_SET_NO": 999, "REV_AT_EPOCH": 302, "BSTAR": -0.023424487, "MEAN_MOTION_DOT": -0.02027171, "MEAN_MOTION_DDOT": 0}, "tle": {"line1": "1 66856U 25281J   25356.91670139 -.02027171  00000+0 -23424-1 0  9993", "line2": "2 66856  43.0004  60.2981 0001207 284.1182 187.4761 15.64393353  3027"}}, "geometry": {"type": "Point", "coordinates": [30.36001933113485, -23.7585691690292]}}, {"type": "Feature", "properties": {"norad_id": 66857, "name": "STARLINK-36083", "group": "last-30-days", "lat": -22.599438264853028, "lon": 32.01290091300125, "alt_km": 380.39133404038876, "timestamp": "2025-12-23T05:02:10.750762+00:00", "meta": {"OBJECT_NAME": "STARLINK-36083", "OBJECT_ID": "2025-281K", "EPOCH": "2025-12-22T22:00:03.000096", "MEAN_MOTION": 15.64390796, "ECCENTRICITY": 0.00010813, "INCLINATION": 43.0004, "RA_OF_ASC_NODE": 60.2935, "ARG_OF_PERICENTER": 281.6755, "MEAN_ANOMALY": 191.8356, "EPHEMERIS_TYPE": 0, "CLASSIFICATION_TYPE": "U", "NORAD_CAT_ID": 66857, "ELEMENT_SET_NO": 999, "REV_AT_EPOCH": 302, "BSTAR": -0.023363815, "MEAN_MOTION_DOT": -0.02022294, "MEAN_MOTION_DDOT": 0}, "tle": {"line1": "1 66857U 25281K   25356.91670139 -.02022294  00000+0 -23364-1 0  9998", "line2": "2 66857  43.0004  60.2935 0001081 281.6755 191.8356 15.64390796  3022"}}, "geometry": {"type": "Point", "coordinates": [32.01290091300125, -22.599438264853028]}}, {"type": "Feature", "properties": {"norad_id": 66858, "name": "STARLINK-35118", "group": "last-30-days", "lat": -21.422260336322, "lon": 33.639092207756505, "alt_km": 380.2552485270535, "timestamp": "2025-12-23T05:02:10.750772+00:00", "meta": {"OBJECT_NAME": "STARLINK-35118", "OBJECT_ID": "2025-281L", "EPOCH": "2025-12-22T22:00:03.000096", "MEAN_MOTION": 15.64394598, "ECCENTRICITY": 0.0001161, "INCLINATION": 43.0006, "RA_OF_ASC_NODE": 60.2881, "ARG_OF_PERICENTER": 282.8062, "MEAN_ANOMALY": 192.6202, "EPHEMERIS_TYPE": 0, "CLASSIFICATION_TYPE": "U", "NORAD_CAT_ID": 66858, "ELEMENT_SET_NO": 999, "REV_AT_EPOCH": 281, "BSTAR": -0.023421596, "MEAN_MOTION_DOT": -0.02027005, "MEAN_MOTION_DDOT": 0}, "tle": {"line1": "1 66858U 25281L   25356.91670139 -.02027005  00000+0 -23422-1 0  9999", "line2": "2 66858  43.0006  60.2881 0001161 282.8062 192.6202 15.64394598  2817"}}, "geometry": {"type": "Point", "coordinates": [33.639092207756505, -21.422260336322]}}]}